[{"OBJECT_NAME":"IRIDIUM 132","OBJECT_ID":"2017-061G","EPOCH":"2026-03-09T22:35:22.589952","MEAN_MOTION":14.34217397,"ECCENTRICITY":0.00019726,"INCLINATION":86.3913,"RA_OF_ASC_NODE":66.7375,"ARG_OF_PERICENTER":90.1934,"MEAN_ANOMALY":269.9487,"EPHEMERIS_TYPE":0,"CLASSIFICATION_TYPE":"U","NORAD_CAT_ID":42961,"ELEMENT_SET_NO":999,"REV_AT_EPOCH":44059,"BSTAR":-6.187907e-6,"MEAN_MOTION_DOT":2.0e-8,"MEAN_MOTION_DDOT":0},{"OBJECT_NAME":"COSMOS 841","OBJECT_ID":"1976-069A","EPOCH":"2026-03-09T19:36:32.024448","MEAN_MOTION":14.36797675,"ECCENTRICITY":0.00138624,"INCLINATION":74.0425,"RA_OF_ASC_NODE":123.6029,"ARG_OF_PERICENTER":234.546,"MEAN_ANOMALY":125.44,"EPHEMERIS_TYPE":0,"CLASSIFICATION_TYPE":"U","NORAD_CAT_ID":9022,"ELEMENT_SET_NO":999,"REV_AT_EPOCH":59810,"BSTAR":7.0939317e-5,"MEAN_MOTION_DOT":1.83e-6,"MEAN_MOTION_DDOT":0}]
